[{"OBJECT_NAME":"IRIDIUM 170","OBJECT_ID":"2019-002J","EPOCH":"2026-03-09T22:22:31.188288","MEAN_MOTION":14.72262238,"ECCENTRICITY":0.00027319,"INCLINATION":86.6095,"RA_OF_ASC_NODE":35.0236,"ARG_OF_PERICENTER":88.7648,"MEAN_ANOMALY":271.3882,"EPHEMERIS_TYPE":0,"CLASSIFICATION_TYPE":"U","NORAD_CAT_ID":43930,"ELEMENT_SET_NO":999,"REV_AT_EPOCH":38465,"BSTAR":0.00020964732,"MEAN_MOTION_DOT":1.347e-5,"MEAN_MOTION_DDOT":0},{"OBJECT_NAME":"KINEIS-4B","OBJECT_ID":"2025-056E","EPOCH":"2026-03-09T22:10:37.362720","MEAN_MOTION":14.72310285,"ECCENTRICITY":0.00024844,"INCLINATION":97.9938,"RA_OF_ASC_NODE":195.3416,"ARG_OF_PERICENTER":188.4557,"MEAN_ANOMALY":171.6609,"EPHEMERIS_TYPE":0,"CLASSIFICATION_TYPE":"U","NORAD_CAT_ID":63304,"ELEMENT_SET_NO":999,"REV_AT_EPOCH":5251,"BSTAR":0.00042908696,"MEAN_MOTION_DOT":2.664e-5,"MEAN_MOTION_DDOT":0}]
